NORAD_CAT_ID,OBJECT_NAME,OBJECT_TYPE,EPOCH,MEAN_MOTION,ECCENTRICITY,INCLINATION,RA_OF_ASC_NODE,ARG_OF_PERICENTER,MEAN_ANOMALY,BSTAR,MEAN_MOTION_DOT,MEAN_MOTION_DDOT,TLE_LINE0,TLE_LINE1,TLE_LINE2,SEMIMAJOR_AXIS,PERIOD,APOGEE,PERIGEE,DECAYED
55677.0,STARLINK-5324,PAYLOAD,2023-03-04 16:00:00,15.73756581,0.0003412,69.9997,108.0551,272.1862,271.727,-0.0077245,-0.00989696,0.0,0 STARLINK-5324,1 55677U 23021BB  23063.66667824 -.00989696  00000-0 -77245-2 0  9993,2 55677  69.9997 108.0551 0003412 272.1862 271.7270 15.73756581  2881,6726.309,91.501,350.469,345.879,0.0
55677.0,STARLINK-5324,PAYLOAD,2023-03-04 22:00:00,15.73197639,0.0003395,69.9931,107.3397,271.3366,248.2839,-0.0074363,-0.00921156,0.0,0 STARLINK-5324,1 55677U 23021BB  23063.91667824 -.00921156  00000-0 -74363-2 0  9996,2 55677  69.9931 107.3397 0003395 271.3366 248.2839 15.73197639  1308,6727.902,91.533,352.051,347.483,0.0
55677.0,STARLINK-5324,PAYLOAD,2023-03-05 14:00:01,15.7180596,0.000364,69.9924,105.4588,276.6364,55.8572,-0.0082325,-0.0097212,0.0,0 STARLINK-5324,1 55677U 23021BB  23064.58334491 -.00972120  00000-0 -82325-2 0  9995,2 55677  69.9924 105.4588 0003640 276.6364  55.8572 15.71805960  1307,6731.873,91.614,356.188,351.287,0.0
55677.0,STARLINK-5324,PAYLOAD,2023-03-05 16:00:00,15.71660359,0.0003542,69.9922,105.2239,277.8172,166.0388,-0.0088144,-0.01028413,0.0,0 STARLINK-5324,1 55677U 23021BB  23064.66667824 -.01028413  00000-0 -88144-2 0  9996,2 55677  69.9922 105.2239 0003542 277.8172 166.0388 15.71660359  3041,6732.288,91.623,356.538,351.769,0.0
55677.0,STARLINK-5324,PAYLOAD,2023-03-05 22:00:00,15.71069098,0.0003664,69.9924,104.5194,270.4228,147.2505,-0.0080485,-0.00911729,0.0,0 STARLINK-5324,1 55677U 23021BB  23064.91667824 -.00911729  00000-0 -80485-2 0  9994,2 55677  69.9924 104.5194 0003664 270.4228 147.2505 15.71069098  1303,6733.977,91.657,358.31,353.375,0.0
55677.0,STARLINK-5324,PAYLOAD,2023-03-06 08:00:01,15.70032794,0.0003577,69.9935,103.347,275.1748,337.7791,-0.0015065,-0.0017838,0.0,0 STARLINK-5324,1 55677U 23021BB  23065.33334491 -.00178380  00000-0 -15065-2 0  9992,2 55677  69.9935 103.3470 0003577 275.1748 337.7791 15.70032794  3140,6736.94,91.718,361.215,356.395,0.0
55677.0,STARLINK-5324,PAYLOAD,2023-03-06 14:00:01,15.69921906,0.0003555,69.9941,102.643,276.1438,309.3657,4.234e-05,4.881e-05,0.0,0 STARLINK-5324,1 55677U 23021BB  23065.58334491  .00004881  00000-0  42340-4 0  9999,2 55677  69.9941 102.6430 0003555 276.1438 309.3657 15.69921906  3188,6737.257,91.724,361.518,356.727,0.0
55677.0,STARLINK-5324,PAYLOAD,2023-03-06 22:00:00,15.69888161,0.0003428,69.9962,101.7057,270.0771,38.7851,0.00047711,0.00057465,0.0,0 STARLINK-5324,1 55677U 23021BB  23065.91667824  .00057465  00000-0  47711-3 0  9997,2 55677  69.9962 101.7057 0003428 270.0771  38.7851 15.69888161  1304,6737.354,91.726,361.529,356.909,0.0
55677.0,STARLINK-5324,PAYLOAD,2023-03-07 22:00:00,15.69859262,0.0003446,70.0001,98.8934,267.2425,291.6419,0.00090692,0.00109982,0.0,0 STARLINK-5324,1 55677U 23021BB  23066.91667824  .00109982  00000-0  90692-3 0  9996,2 55677  70.0001  98.8934 0003446 267.2425 291.6419 15.69859262  3396,6737.437,91.728,361.623,356.98,0.0
55677.0,STARLINK-5324,PAYLOAD,2023-03-08 06:00:00,15.69911185,0.0003404,70.0007,97.9562,270.1743,11.9998,-0.00019154,-0.00023168,0.0,0 STARLINK-5324,1 55677U 23021BB  23067.25001157 -.00023168  00000-0 -19154-3 0  9992,2 55677  70.0007  97.9562 0003404 270.1743  11.9998 15.69911185  3443,6737.288,91.725,361.446,356.86,0.0
55677.0,STARLINK-5324,PAYLOAD,2023-03-08 16:00:00,15.70005779,0.0003266,70.0005,96.7848,272.1213,204.1954,-0.0011954,-0.00142024,0.0,0 STARLINK-5324,1 55677U 23021BB  23067.66667824 -.00142024  00000-0 -11954-2 0  9998,2 55677  70.0005  96.7848 0003266 272.1213 204.1954 15.70005779  3516,6737.017,91.719,361.083,356.682,0.0
55677.0,STARLINK-5324,PAYLOAD,2023-03-08 22:00:00,15.69872653,0.0003401,70.0007,96.082,263.125,185.7524,0.00069516,0.00084037,0.0,0 STARLINK-5324,1 55677U 23021BB  23067.91667824  .00084037  00000-0  69516-3 0  9991,2 55677  70.0007  96.0820 0003401 263.1250 185.7524 15.69872653  1306,6737.398,91.727,361.555,356.972,0.0
55677.0,STARLINK-5324,PAYLOAD,2023-03-09 08:00:01,15.69884032,0.0003398,70.0008,94.9106,268.4464,14.5841,0.00038594,0.00046373,0.0,0 STARLINK-5324,1 55677U 23021BB  23068.33334491  .00046373  00000-0  38594-3 0  9992,2 55677  70.0008  94.9106 0003398 268.4464  14.5841 15.69884032  3612,6737.366,91.727,361.52,356.941,0.0
55677.0,STARLINK-5324,PAYLOAD,2023-03-09 22:00:00,15.69887127,0.0003463,70.0006,93.2703,264.7946,74.0874,0.00045424,0.0005468,0.0,0 STARLINK-5324,1 55677U 23021BB  23068.91667824  .00054680  00000-0  45424-3 0  9995,2 55677  70.0006  93.2703 0003463 264.7946  74.0874 15.69887127  1301,6737.357,91.726,361.555,356.889,0.0
55677.0,STARLINK-5324,PAYLOAD,2023-03-10 10:19:27,15.69904549,0.0003356,70.0006,91.8269,268.2303,91.8508,5.258e-05,6.109e-05,0.0,0 STARLINK-5324,1 55677U 23021BB  23069.43017650  .00006109  00000-0  52580-4 0  9994,2 55677  70.0006  91.8269 0003356 268.2303  91.8508 15.69904549  3782,6737.307,91.725,361.433,356.911,0.0
55677.0,STARLINK-5324,PAYLOAD,2023-03-10 17:58:13,15.69905964,0.0003427,70.0006,90.9312,264.0483,96.0322,0.00021702,0.00025943,0.0,0 STARLINK-5324,1 55677U 23021BB  23069.74876784  .00025943  00000-0  21702-3 0  9997,2 55677  70.0006  90.9312 0003427 264.0483  96.0322 15.69905964  4147,6737.303,91.725,361.477,356.859,0.0
55677.0,STARLINK-5324,PAYLOAD,2023-03-11 10:47:28,15.69988438,0.0003193,70.001,88.9599,281.06,79.0237,0.00027714,0.00033331,0.0,0 STARLINK-5324,1 55677U 23021BB  23070.44963796  .00033331  00000-0  27714-3 0  9995,2 55677  70.0010  88.9599 0003193 281.0600  79.0237 15.69988438  3946,6737.067,91.72,361.083,356.781,0.0
55677.0,STARLINK-5324,PAYLOAD,2023-03-11 12:19:14,15.69951796,0.0002868,70.001,88.7811,293.729,66.3605,1.042e-05,1.042e-05,0.0,0 STARLINK-5324,1 55677U 23021BB  23070.51335823  .00001042  00000-0  10420-4 0  9998,2 55677  70.0010  88.7811 0002868 293.7290  66.3605 15.69951796  4265,6737.172,91.723,360.969,357.105,0.0
55677.0,STARLINK-5324,PAYLOAD,2023-03-12 03:36:45,15.69917679,0.0003417,70.0012,86.9899,271.7751,88.3053,0.00010112,0.0001196,0.0,0 STARLINK-5324,1 55677U 23021BB  23071.15052836  .00011960  00000-0  10112-3 0  9996,2 55677  70.0012  86.9899 0003417 271.7751  88.3053 15.69917679  4052,6737.27,91.725,361.437,356.832,0.0
55677.0,STARLINK-5324,PAYLOAD,2023-03-12 11:15:30,15.69954845,0.0002909,70.0013,86.094,260.5113,99.5755,0.00026956,0.00032364,0.0,0 STARLINK-5324,1 55677U 23021BB  23071.46910825  .00032364  00000-0  26956-3 0  9995,2 55677  70.0013  86.0940 0002909 260.5113  99.5755 15.69954845  4413,6737.163,91.722,360.988,357.068,0.0
55677.0,STARLINK-5324,PAYLOAD,2023-03-12 12:47:15,15.69974548,0.0003332,70.0012,85.9141,269.387,90.6944,0.00046784,0.00056539,0.0,0 STARLINK-5324,1 55677U 23021BB  23071.53282226  .00056539  00000-0  46784-3 0  9991,2 55677  70.0012  85.9141 0003332 269.3870  90.6944 15.69974548  4112,6737.107,91.721,361.217,356.727,0.0
55677.0,STARLINK-5324,PAYLOAD,2023-03-13 04:04:47,15.69962338,0.0003548,70.0013,84.1235,258.7625,101.3172,0.00056723,0.00068663,0.0,0 STARLINK-5324,1 55677U 23021BB  23072.16998887  .00068663  00000-0  56723-3 0  9993,2 55677  70.0013  84.1235 0003548 258.7625 101.3172 15.69962338  4215,6737.142,91.722,361.397,356.616,0.0
55677.0,STARLINK-5324,PAYLOAD,2023-03-13 10:11:47,15.69939199,0.0004538,70.0025,83.4073,279.4025,80.6658,0.00029185,0.00035057,0.0,0 STARLINK-5324,1 55677U 23021BB  23072.42485648  .00035057  00000-0  29185-3 0  9991,2 55677  70.0025  83.4073 0004538 279.4025  80.6658 15.69939199  4255,6737.208,91.723,362.13,356.016,0.0
55677.0,STARLINK-5324,PAYLOAD,2023-03-13 13:15:18,15.69926442,0.0003496,70.0021,83.0501,265.3495,94.7302,0.00027925,0.00033503,0.0,0 STARLINK-5324,1 55677U 23021BB  23072.55229206  .00033503  00000-0  27925-3 0  9995,2 55677  70.0021  83.0501 0003496 265.3495  94.7302 15.69926442  4585,6737.244,91.724,361.465,356.754,0.0
55677.0,STARLINK-5324,PAYLOAD,2023-03-14 03:01:04,15.69939601,0.0003501,70.0016,81.4373,264.5266,95.553,0.00015939,0.00019009,0.0,0 STARLINK-5324,1 55677U 23021BB  23073.12574093  .00019009  00000-0  15939-3 0  9993,2 55677  70.0016  81.4373 0003501 264.5266  95.5530 15.69939601  4361,6737.207,91.723,361.43,356.713,0.0
55677.0,STARLINK-5324,PAYLOAD,2023-03-14 10:39:49,15.69938611,0.0003297,70.0022,80.542,264.952,95.1299,0.00011152,0.00013226,0.0,0 STARLINK-5324,1 55677U 23021BB  23073.44432478  .00013226  00000-0  11152-3 0  9996,2 55677  70.0022  80.5420 0003297 264.9520  95.1299 15.69938611  4414,6737.21,91.723,361.296,356.853,0.0
55677.0,STARLINK-5324,PAYLOAD,2023-03-15 03:29:07,15.69912182,0.0002696,70.004,78.572,262.859,97.2299,2.7175e-05,3.055e-05,0.0,0 STARLINK-5324,1 55677U 23021BB  23074.14522058  .00003055  00000-0  27175-4 0  9990,2 55677  70.0040  78.5720 0002696 262.8590  97.2299 15.69912182  4520,6737.285,91.725,360.967,357.334,0.0
55677.0,STARLINK-5324,PAYLOAD,2023-03-15 09:36:06,15.69944286,0.0003095,70.0014,77.8553,259.6858,100.3989,0.00018491,0.00022097,0.0,0 STARLINK-5324,1 55677U 23021BB  23074.40008075  .00022097  00000-0  18491-3 0  9994,2 55677  70.0014  77.8553 0003095 259.6858 100.3989 15.69944286  4568,6737.193,91.723,361.144,356.973,0.0
55677.0,STARLINK-5324,PAYLOAD,2023-03-15 12:39:36,15.69969875,0.0003651,70.0016,77.4963,259.2968,100.7817,0.00029714,0.00035738,0.0,0 STARLINK-5324,1 55677U 23021BB  23074.52750640  .00035738  00000-0  29714-3 0  9995,2 55677  70.0016  77.4963 0003651 259.2968 100.7817 15.69969875  4898,6737.12,91.722,361.445,356.525,0.0
55677.0,STARLINK-5324,PAYLOAD,2023-03-16 02:25:22,15.69936734,0.000318,70.0022,75.8838,254.7802,105.3042,2.9046e-05,3.283e-05,0.0,0 STARLINK-5324,1 55677U 23021BB  23075.10096049  .00003283  00000-0  29046-4 0  9995,2 55677  70.0022  75.8838 0003180 254.7802 105.3042 15.69936734  4677,6737.215,91.723,361.222,356.938,0.0
